STARLINK-4728           
1 53793U 22111W   26068.72064301  .00000041  00000+0  20647-4 0  9996
2 53793  53.2157 273.7832 0001261  97.0302 263.0834 15.08835974193699
LEMUR-2-ESPERANZA       
1 63352U 25061B   26068.87489603  .00006090  00000+0  34973-3 0  9993
2 63352  97.5568  45.1407 0016949 244.8770 115.0702 15.12770807 52576
